IRIDIUM 116             
1 43072U 17083C   25260.00148280  .00000108  00000+0  31476-4 0  9996
2 43072  86.3905  76.2030 0002302  83.9534 276.1924 14.34216955405017
IRIDIUM 130             
1 43073U 17083D   25260.03952738  .00000011  00000+0 -31126-5 0  9998
2 43073  86.3914  76.4362 0002397  86.8632 273.2839 14.34217530404969
IRIDIUM 151             
1 43074U 17083E   25260.01415569 -.00000010  00000+0 -10537-4 0  9995
2 43074  86.3907  76.2494 0002150  84.1084 276.0356 14.34217523404984
IRIDIUM 134             
1 43075U 17083F   25259.98244416  .00000038  00000+0  64344-5 0  9995
2 43075  86.3909  76.2670 0002454  88.0331 272.1146 14.34217697404940
IRIDIUM 137             
1 43076U 17083G   25259.99512905  .00000058  00000+0  13703-4 0  9992
2 43076  86.3910  76.3490 0002187  72.7577 287.3858 14.34217745405010
IRIDIUM 141             
1 43077U 17083H   25259.98878579  .00000012  00000+0 -28381-5 0  9994
2 43077  86.3905  76.1977 0001940  92.4201 267.7217 14.34217551405018
IRIDIUM 153             
1 43078U 17083J   25259.94096472  .00000260  00000+0  85919-4 0  9998
2 43078  86.3958  44.6768 0002037 103.9767 256.1655 14.34218404406116
IRIDIUM 131             
1 43079U 17083K   25260.04586896  .00000083  00000+0  22477-4 0  9999
2 43079  86.3911  76.3417 0001994  89.7012 270.4412 14.34217830404956
